CCSDS_OMM_VERS = 2.0
CREATION_DATE  = 
ORIGINATOR     = 

OBJECT_NAME    = CYGNUS NG-23
OBJECT_ID      = 2025-208A
CENTER_NAME    = EARTH
REF_FRAME      = TEME
TIME_SYSTEM    = UTC
MEAN_ELEMENT_THEORY = SGP/SGP4

EPOCH          = 2026-01-11T09:40:05.985984
MEAN_MOTION    = 15.49235693
ECCENTRICITY   = .00076976
INCLINATION    = 51.6334
RA_OF_ASC_NODE = 355.6191
ARG_OF_PERICENTER = 6.1669
MEAN_ANOMALY   = 353.9413

EPHEMERIS_TYPE = 0
CLASSIFICATION_TYPE = U
NORAD_CAT_ID   = 65616
ELEMENT_SET_NO = 999
REV_AT_EPOCH   = 22
BSTAR          = .20258651E-3
MEAN_MOTION_DOT = .10825E-3
MEAN_MOTION_DDOT = 0

CCSDS_OMM_VERS = 2.0
CREATION_DATE  = 
ORIGINATOR     = 

OBJECT_NAME    = DRAGONFLY
OBJECT_ID      = 1998-067XH
CENTER_NAME    = EARTH
REF_FRAME      = TEME
TIME_SYSTEM    = UTC
MEAN_ELEMENT_THEORY = SGP/SGP4

EPOCH          = 2026-01-11T14:59:13.753536
MEAN_MOTION    = 15.87118615
ECCENTRICITY   = .00082436
INCLINATION    = 51.6225
RA_OF_ASC_NODE = 341.2795
ARG_OF_PERICENTER = 91.5225
MEAN_ANOMALY   = 268.6724

EPHEMERIS_TYPE = 0
CLASSIFICATION_TYPE = U
NORAD_CAT_ID   = 65729
ELEMENT_SET_NO = 999
REV_AT_EPOCH   = 1788
BSTAR          = .13945757E-2
MEAN_MOTION_DOT = .387976E-2
MEAN_MOTION_DDOT = 0

CCSDS_OMM_VERS = 2.0
CREATION_DATE  = 
ORIGINATOR     = 

OBJECT_NAME    = 1998-067XK
OBJECT_ID      = 1998-067XK
CENTER_NAME    = EARTH
REF_FRAME      = TEME
TIME_SYSTEM    = UTC
MEAN_ELEMENT_THEORY = SGP/SGP4

EPOCH          = 2026-01-11T03:50:53.422656
MEAN_MOTION    = 15.72902940
ECCENTRICITY   = .00049954
INCLINATION    = 51.6286
RA_OF_ASC_NODE = 347.2435
ARG_OF_PERICENTER = 61.6122
MEAN_ANOMALY   = 298.5380

EPHEMERIS_TYPE = 0
CLASSIFICATION_TYPE = U
NORAD_CAT_ID   = 65731
ELEMENT_SET_NO = 999
REV_AT_EPOCH   = 1776
BSTAR          = .11673701E-2
MEAN_MOTION_DOT = .164722E-2
MEAN_MOTION_DDOT = 0

CCSDS_OMM_VERS = 2.0
CREATION_DATE  = 
ORIGINATOR     = 

OBJECT_NAME    = RSP-03
OBJECT_ID      = 1998-067XL
CENTER_NAME    = EARTH
REF_FRAME      = TEME
TIME_SYSTEM    = UTC
MEAN_ELEMENT_THEORY = SGP/SGP4

EPOCH          = 2026-01-11T03:39:16.098624
MEAN_MOTION    = 15.78699385
ECCENTRICITY   = .00060587
INCLINATION    = 51.6253
RA_OF_ASC_NODE = 345.6628
ARG_OF_PERICENTER = 70.0166
MEAN_ANOMALY   = 290.1487

EPHEMERIS_TYPE = 0
CLASSIFICATION_TYPE = U
NORAD_CAT_ID   = 65732
ELEMENT_SET_NO = 999
REV_AT_EPOCH   = 1779
BSTAR          = .11934645E-2
MEAN_MOTION_DOT = .218742E-2
MEAN_MOTION_DDOT = 0

CCSDS_OMM_VERS = 2.0
CREATION_DATE  = 
ORIGINATOR     = 

OBJECT_NAME    = GHS-01
OBJECT_ID      = 1998-067XM
CENTER_NAME    = EARTH
REF_FRAME      = TEME
TIME_SYSTEM    = UTC
MEAN_ELEMENT_THEORY = SGP/SGP4

EPOCH          = 2026-01-11T03:54:49.255776
MEAN_MOTION    = 15.97113039
ECCENTRICITY   = .00084213
INCLINATION    = 51.6241
RA_OF_ASC_NODE = 341.9453
ARG_OF_PERICENTER = 100.3248
MEAN_ANOMALY   = 259.8711

EPHEMERIS_TYPE = 0
CLASSIFICATION_TYPE = U
NORAD_CAT_ID   = 65733
ELEMENT_SET_NO = 999
REV_AT_EPOCH   = 1784
BSTAR          = .19087454E-2
MEAN_MOTION_DOT = .851423E-2
MEAN_MOTION_DDOT = .33682771E-3

CCSDS_OMM_VERS = 2.0
CREATION_DATE  = 
ORIGINATOR     = 

OBJECT_NAME    = YOTSUBA-KULOVER
OBJECT_ID      = 1998-067XN
CENTER_NAME    = EARTH
REF_FRAME      = TEME
TIME_SYSTEM    = UTC
MEAN_ELEMENT_THEORY = SGP/SGP4

EPOCH          = 2026-01-11T11:13:48.094464
MEAN_MOTION    = 15.64369670
ECCENTRICITY   = .00040274
INCLINATION    = 51.6294
RA_OF_ASC_NODE = 350.0570
ARG_OF_PERICENTER = 88.9539
MEAN_ANOMALY   = 271.1918

EPHEMERIS_TYPE = 0
CLASSIFICATION_TYPE = U
NORAD_CAT_ID   = 65941
ELEMENT_SET_NO = 999
REV_AT_EPOCH   = 1450
BSTAR          = .10407467E-2
MEAN_MOTION_DOT = .102458E-2
MEAN_MOTION_DDOT = 0

CCSDS_OMM_VERS = 2.0
CREATION_DATE  = 
ORIGINATOR     = 

OBJECT_NAME    = BOTAN
OBJECT_ID      = 1998-067XP
CENTER_NAME    = EARTH
REF_FRAME      = TEME
TIME_SYSTEM    = UTC
MEAN_ELEMENT_THEORY = SGP/SGP4

EPOCH          = 2026-01-11T03:05:08.994048
MEAN_MOTION    = 15.70749769
ECCENTRICITY   = .00047547
INCLINATION    = 51.6270
RA_OF_ASC_NODE = 350.0311
ARG_OF_PERICENTER = 82.6619
MEAN_ANOMALY   = 277.4919

EPHEMERIS_TYPE = 0
CLASSIFICATION_TYPE = U
NORAD_CAT_ID   = 65942
ELEMENT_SET_NO = 999
REV_AT_EPOCH   = 1447
BSTAR          = .12354224E-2
MEAN_MOTION_DOT = .159045E-2
MEAN_MOTION_DDOT = 0

CCSDS_OMM_VERS = 2.0
CREATION_DATE  = 
ORIGINATOR     = 

OBJECT_NAME    = E-KAGAKU-1
OBJECT_ID      = 1998-067XQ
CENTER_NAME    = EARTH
REF_FRAME      = TEME
TIME_SYSTEM    = UTC
MEAN_ELEMENT_THEORY = SGP/SGP4

EPOCH          = 2026-01-11T08:09:39.522528
MEAN_MOTION    = 15.64340229
ECCENTRICITY   = .00025159
INCLINATION    = 51.6314
RA_OF_ASC_NODE = 350.7082
ARG_OF_PERICENTER = 93.4167
MEAN_ANOMALY   = 266.7116

EPHEMERIS_TYPE = 0
CLASSIFICATION_TYPE = U
NORAD_CAT_ID   = 65943
ELEMENT_SET_NO = 999
REV_AT_EPOCH   = 1448
BSTAR          = .10492463E-2
MEAN_MOTION_DOT = .103167E-2
MEAN_MOTION_DDOT = 0

CCSDS_OMM_VERS = 2.0
CREATION_DATE  = 
ORIGINATOR     = 

OBJECT_NAME    = HRC MONOBLOCK CAMERA
OBJECT_ID      = 1998-067XR
CENTER_NAME    = EARTH
REF_FRAME      = TEME
TIME_SYSTEM    = UTC
MEAN_ELEMENT_THEORY = SGP/SGP4

EPOCH          = 2026-01-11T06:33:29.425536
MEAN_MOTION    = 15.56436802
ECCENTRICITY   = .00012108
INCLINATION    = 51.6312
RA_OF_ASC_NODE = 354.0064
ARG_OF_PERICENTER = 347.0208
MEAN_ANOMALY   = 13.0753

EPHEMERIS_TYPE = 0
CLASSIFICATION_TYPE = U
NORAD_CAT_ID   = 66052
ELEMENT_SET_NO = 999
REV_AT_EPOCH   = 1343
BSTAR          = .63179489E-3
MEAN_MOTION_DOT = .45299E-3
MEAN_MOTION_DDOT = 0

CCSDS_OMM_VERS = 2.0
CREATION_DATE  = 
ORIGINATOR     = 

OBJECT_NAME    = HTV-X1
OBJECT_ID      = 2025-241A
CENTER_NAME    = EARTH
REF_FRAME      = TEME
TIME_SYSTEM    = UTC
MEAN_ELEMENT_THEORY = SGP/SGP4

EPOCH          = 2026-01-11T09:40:05.985984
MEAN_MOTION    = 15.49235693
ECCENTRICITY   = .00076976
INCLINATION    = 51.6334
RA_OF_ASC_NODE = 355.6191
ARG_OF_PERICENTER = 6.1669
MEAN_ANOMALY   = 353.9413

EPHEMERIS_TYPE = 0
CLASSIFICATION_TYPE = U
NORAD_CAT_ID   = 66174
ELEMENT_SET_NO = 999
REV_AT_EPOCH   = 51
BSTAR          = .20258651E-3
MEAN_MOTION_DOT = .10825E-3
MEAN_MOTION_DDOT = 0

CCSDS_OMM_VERS = 2.0
CREATION_DATE  = 
ORIGINATOR     = 

OBJECT_NAME    = SZ-21 MODULE
OBJECT_ID      = 2025-246C
CENTER_NAME    = EARTH
REF_FRAME      = TEME
TIME_SYSTEM    = UTC
MEAN_ELEMENT_THEORY = SGP/SGP4

EPOCH          = 2026-01-11T15:03:29.644416
MEAN_MOTION    = 15.64332597
ECCENTRICITY   = .00016144
INCLINATION    = 41.4741
RA_OF_ASC_NODE = 193.4843
ARG_OF_PERICENTER = 139.2924
MEAN_ANOMALY   = 220.8037

EPHEMERIS_TYPE = 0
CLASSIFICATION_TYPE = U
NORAD_CAT_ID   = 66515
ELEMENT_SET_NO = 999
REV_AT_EPOCH   = 912
BSTAR          = .29945885E-3
MEAN_MOTION_DOT = .29244E-3
MEAN_MOTION_DDOT = 0

CCSDS_OMM_VERS = 2.0
CREATION_DATE  = 
ORIGINATOR     = 

OBJECT_NAME    = SHENZHOU-22
OBJECT_ID      = 2025-272A
CENTER_NAME    = EARTH
REF_FRAME      = TEME
TIME_SYSTEM    = UTC
MEAN_ELEMENT_THEORY = SGP/SGP4

EPOCH          = 2026-01-11T13:13:57.326880
MEAN_MOTION    = 15.60410728
ECCENTRICITY   = .0011442
INCLINATION    = 41.4652
RA_OF_ASC_NODE = 195.5496
ARG_OF_PERICENTER = 264.9912
MEAN_ANOMALY   = 94.9621

EPHEMERIS_TYPE = 0
CLASSIFICATION_TYPE = U
NORAD_CAT_ID   = 66645
ELEMENT_SET_NO = 999
REV_AT_EPOCH   = 26764
BSTAR          = .21508644E-3
MEAN_MOTION_DOT = .17927E-3
MEAN_MOTION_DDOT = 0

