CYGNUS NG-23            
1 65616U 25208A   26011.40284706  .00010825  00000+0  20259-3 0  9998
2 65616  51.6334 355.6191 0007697   6.1669 353.9413 15.49235693   224
DRAGONFLY               
1 65729U 98067XH  26011.62446474  .00387976  00000+0  13946-2 0  9990
2 65729  51.6225 341.2795 0008243  91.5225 268.6724 15.87118615 17886
1998-067XK              
1 65731U 98067XK  26011.16034054  .00164722  00000+0  11674-2 0  9997
2 65731  51.6286 347.2435 0004995  61.6122 298.5380 15.72902940 17760
RSP-03                  
1 65732U 98067XL  26011.15226966  .00218742  00000+0  11935-2 0  9994
2 65732  51.6253 345.6628 0006058  70.0166 290.1487 15.78699385 17796
GHS-01                  
1 65733U 98067XM  26011.16307009  .00851423  33683-3  19087-2 0  9996
2 65733  51.6241 341.9453 0008421 100.3248 259.8711 15.97113039 17849
YOTSUBA-KULOVER         
1 65941U 98067XN  26011.46791776  .00102458  00000+0  10407-2 0  9995
2 65941  51.6294 350.0570 0004027  88.9539 271.1918 15.64369670 14505
BOTAN                   
1 65942U 98067XP  26011.12857632  .00159045  00000+0  12354-2 0  9990
2 65942  51.6270 350.0311 0004754  82.6619 277.4919 15.70749769 14474
E-KAGAKU-1              
1 65943U 98067XQ  26011.34004077  .00103167  00000+0  10492-2 0  9997
2 65943  51.6314 350.7082 0002515  93.4167 266.7116 15.64340229 14489
HRC MONOBLOCK CAMERA    
1 66052U 98067XR  26011.27325724  .00045299  00000+0  63179-3 0  9998
2 66052  51.6312 354.0064 0001210 347.0208  13.0753 15.56436802 13439
HTV-X1                  
1 66174U 25241A   26011.40284706  .00010825  00000+0  20259-3 0  9995
2 66174  51.6334 355.6191 0007697   6.1669 353.9413 15.49235693   516
SZ-21 MODULE            
1 66515U 25246C   26011.62742644  .00029244  00000+0  29946-3 0  9990
2 66515  41.4741 193.4843 0001614 139.2924 220.8037 15.64332597  9129
SHENZHOU-22             
1 66645U 25272A   26011.55135795  .00017927  00000+0  21509-3 0  9990
2 66645  41.4652 195.5496 0011442 264.9912  94.9621 15.60410728267645
